{
    "links": {
        "self": "http://www.neowsapp.com/rest/v1/neo/3545482?api_key=iIulBulltgU6a56xZRHN4H3l9WmuAYTsLGpBGhQ2"
    },
    "id": "3545482",
    "neo_reference_id": "3545482",
    "name": "(2010 RX3)",
    "designation": "2010 RX3",
    "nasa_jpl_url": "http://ssd.jpl.nasa.gov/sbdb.cgi?sstr=3545482",
    "absolute_magnitude_h": 25.0,
    "estimated_diameter": {
        "kilometers": {
            "estimated_diameter_min": 0.02658,
            "estimated_diameter_max": 0.0594346868
        },
        "meters": {
            "estimated_diameter_min": 26.58,
            "estimated_diameter_max": 59.4346868419
        },
        "miles": {
            "estimated_diameter_min": 0.0165160412,
            "estimated_diameter_max": 0.0369309908
        },
        "feet": {
            "estimated_diameter_min": 87.2047272,
            "estimated_diameter_max": 194.9956979785
        }
    },
    "is_potentially_hazardous_asteroid": false,
    "close_approach_data": [
        {
            "close_approach_date": "2010-09-06",
            "close_approach_date_full": "2010-Sep-06 12:48",
            "epoch_date_close_approach": 1283777280000,
            "relative_velocity": {
                "kilometers_per_second": "10.6425776811",
                "kilometers_per_hour": "38313.2796520046",
                "miles_per_hour": "23806.3820148803"
            },
            "miss_distance": {
                "astronomical": "0.0729242223",
                "lunar": "28.3675224747",
                "kilometers": "10909308.327486501",
                "miles": "6778729.8608196738"
            },
            "orbiting_body": "Earth"
        }
    ],
    "orbital_data": {
        "orbit_id": "9",
        "orbit_determination_date": "2017-04-06 08:56:54",
        "first_observation_date": "2010-09-02",
        "last_observation_date": "2010-09-09",
        "data_arc_in_days": 7,
        "observations_used": 26,
        "orbit_uncertainty": "8",
        "minimum_orbit_intersection": ".0152218",
        "jupiter_tisserand_invariant": "3.089",
        "epoch_osculation": "2455443.5",
        "eccentricity": ".6192336484631918",
        "semi_major_axis": "2.635895841823228",
        "inclination": "3.895542613379106",
        "ascending_node_longitude": "172.689538790641",
        "orbital_period": "1563.114509296723",
        "perihelion_distance": "1.003660442722074",
        "perihelion_argument": "202.2579457783763",
        "aphelion_distance": "4.268131240924382",
        "perihelion_time": "2455469.198033702748",
        "mean_anomaly": "354.0815006975071",
        "mean_motion": ".2303094225399848",
        "equinox": "J2000",
        "orbit_class": {
            "orbit_class_type": "APO",
            "orbit_class_description": "Near-Earth asteroid orbits which cross the Earth’s orbit similar to that of 1862 Apollo",
            "orbit_class_range": "a (semi-major axis) > 1.0 AU; q (perihelion) < 1.017 AU"
        }
    },
    "is_sentry_object": false
}